ONEWEB-0063             
1 45448U 20020AA  24092.79333442 -.00000150  00000+0 -45861-3 0  9995
2 45448  87.9036 181.4223 0002332 101.0464 259.0926 13.11416288197002
ONEWEB-0019             
1 45449U 20020AB  24092.76738026  .00000459  00000+0  12591-2 0  9993
2 45449  87.9043 181.4272 0002020 108.9900 251.1447 13.11419600196854
ONEWEB-0094             
1 45450U 20020AC  24092.45913699 -.00000297  00000+0 -79917-3 0  9990
2 45450  87.9240 166.3525 0001923  97.6172 262.5178 13.17648987200079
ONEWEB-0087             
1 45451U 20020AD  24092.95242538 -.00000275  00000+0 -81205-3 0  9992
2 45451  87.9029 181.3664 0001856  94.8682 265.2658 13.11414803196929
ONEWEB-0082             
1 45452U 20020AE  24092.95404631 -.00000321  00000+0 -94043-3 0  9993
2 45452  87.9035 181.3671 0001901 106.0581 254.0756 13.11415627197011
ONEWEB-0050             
1 45453U 20020AF  24093.40672143  .00002058  00000+0  21724-3 0  9993
2 45453  88.0018  47.3138 0004208  42.2733 317.8819 14.88819374220340
ONEWEB-0034             
1 45454U 20020AG  24093.20241853 -.00000315  00000+0 -92538-3 0  9999
2 45454  87.9040 181.3362 0001927 102.7846 257.3498 13.11418062196969
ONEWEB-0060             
1 45455U 20020AH  24093.21053821 -.00000074  00000+0 -24340-3 0  9995
2 45455  87.9043 181.3320 0002046  97.8776 262.2584 13.11418958196927
